[{"OBJECT_NAME":"STARLINK-32305","OBJECT_ID":"2024-183Q","EPOCH":"2026-03-09T10:40:02.657280","MEAN_MOTION":15.30188562,"ECCENTRICITY":8.162e-5,"INCLINATION":53.1597,"RA_OF_ASC_NODE":143.667,"ARG_OF_PERICENTER":111.3915,"MEAN_ANOMALY":248.7173,"EPHEMERIS_TYPE":0,"CLASSIFICATION_TYPE":"U","NORAD_CAT_ID":61523,"ELEMENT_SET_NO":999,"REV_AT_EPOCH":7961,"BSTAR":1.2922894e-5,"MEAN_MOTION_DOT":2.4e-7,"MEAN_MOTION_DDOT":0},{"OBJECT_NAME":"OBJECT N","OBJECT_ID":"2019-093N","EPOCH":"2026-03-09T21:41:56.087232","MEAN_MOTION":15.29897693,"ECCENTRICITY":0.0006278,"INCLINATION":98.0505,"RA_OF_ASC_NODE":226.9456,"ARG_OF_PERICENTER":33.3806,"MEAN_ANOMALY":326.7828,"EPHEMERIS_TYPE":0,"CLASSIFICATION_TYPE":"U","NORAD_CAT_ID":44891,"ELEMENT_SET_NO":999,"REV_AT_EPOCH":33957,"BSTAR":0.0010567776,"MEAN_MOTION_DOT":0.00030617,"MEAN_MOTION_DDOT":0}]
